{
  "type": "FeatureCollection",
  "features": [
    {
      "type": "Feature",
      "properties": {
        "norad_id": 34492,
        "name": "IRIDIUM 33 DEB",
        "group": "iridium-33-debris",
        "lat": 68.92416613048876,
        "lon": 145.97142607215784,
        "alt_km": 888.9267337871006,
        "timestamp": "2025-12-11T08:58:27.510259+00:00",
        "meta_object_name": "IRIDIUM 33 DEB",
        "meta_object_id": "1997-051GH",
        "meta_epoch": "2025-12-10T11:09:51.703200",
        "meta_mean_motion": 14.25634536,
        "meta_eccentricity": 0.01891979,
        "meta_inclination": 86.473,
        "meta_ra_of_asc_node": 335.5473,
        "meta_arg_of_pericenter": 245.5701,
        "meta_mean_anomaly": 245.7256,
        "meta_ephemeris_type": 0,
        "meta_classification_type": "U",
        "meta_norad_cat_id": 34492,
        "meta_element_set_no": 999,
        "meta_rev_at_epoch": 85026,
        "meta_bstar": 0.0074682378,
        "meta_mean_motion_dot": 0.00021406,
        "meta_mean_motion_ddot": 0,
        "tle_line1": "1 34492U 97051GH  25344.46518175  .00021406  00000+0  74682-2 0  9990",
        "tle_line2": "2 34492  86.4730 335.5473 0189197 245.5701 245.7256 14.25634536850262"
      },
      "geometry": {
        "type": "Point",
        "coordinates": [
          145.97142607215784,
          68.92416613048876
        ]
      }
    },
    {
      "type": "Feature",
      "properties": {
        "norad_id": 34497,
        "name": "IRIDIUM 33 DEB",
        "group": "iridium-33-debris",
        "lat": -17.973219744546736,
        "lon": 51.775213969372736,
        "alt_km": 748.6050259757649,
        "timestamp": "2025-12-11T08:58:27.510269+00:00",
        "meta_object_name": "IRIDIUM 33 DEB",
        "meta_object_id": "1997-051GN",
        "meta_epoch": "2025-12-10T04:35:23.086752",
        "meta_mean_motion": 14.2744131,
        "meta_eccentricity": 0.00790645,
        "meta_inclination": 86.2779,
        "meta_ra_of_asc_node": 53.4903,
        "meta_arg_of_pericenter": 347.8917,
        "meta_mean_anomaly": 40.4515,
        "meta_ephemeris_type": 0,
        "meta_classification_type": "U",
        "meta_norad_cat_id": 34497,
        "meta_element_set_no": 999,
        "meta_rev_at_epoch": 86847,
        "meta_bstar": 0.00082191095,
        "meta_mean_motion_dot": 2.102e-05,
        "meta_mean_motion_ddot": 0,
        "tle_line1": "1 34497U 97051GN  25344.19123943  .00002102  00000+0  82191-3 0  9997",
        "tle_line2": "2 34497  86.2779  53.4903 0079064 347.8917  40.4515 14.27441310868476"
      },
      "geometry": {
        "type": "Point",
        "coordinates": [
          51.775213969372736,
          -17.973219744546736
        ]
      }
    },
    {
      "type": "Feature",
      "properties": {
        "norad_id": 34508,
        "name": "IRIDIUM 33 DEB",
        "group": "iridium-33-debris",
        "lat": 84.26616878977023,
        "lon": 142.4376402401259,
        "alt_km": 757.5244370802448,
        "timestamp": "2025-12-11T08:58:27.510280+00:00",
        "meta_object_name": "IRIDIUM 33 DEB",
        "meta_object_id": "1997-051GZ",
        "meta_epoch": "2025-12-10T17:32:54.116160",
        "meta_mean_motion": 14.38397935,
        "meta_eccentricity": 0.00659335,
        "meta_inclination": 86.3699,
        "meta_ra_of_asc_node": 103.4944,
        "meta_arg_of_pericenter": 179.5096,
        "meta_mean_anomaly": 180.6179,
        "meta_ephemeris_type": 0,
        "meta_classification_type": "U",
        "meta_norad_cat_id": 34508,
        "meta_element_set_no": 999,
        "meta_rev_at_epoch": 87280,
        "meta_bstar": 0.0024146559,
        "meta_mean_motion_dot": 7.57e-05,
        "meta_mean_motion_ddot": 0,
        "tle_line1": "1 34508U 97051GZ  25344.73118190  .00007570  00000+0  24147-2 0  9998",
        "tle_line2": "2 34508  86.3699 103.4944 0065933 179.5096 180.6179 14.38397935872800"
      },
      "geometry": {
        "type": "Point",
        "coordinates": [
          142.4376402401259,
          84.26616878977023
        ]
      }
    },
    {
      "type": "Feature",
      "properties": {
        "norad_id": 34521,
        "name": "IRIDIUM 33 DEB",
        "group": "iridium-33-debris",
        "lat": 38.185491917402686,
        "lon": -151.70494375009042,
        "alt_km": 679.5259360840773,
        "timestamp": "2025-12-11T08:58:27.510290+00:00",
        "meta_object_name": "IRIDIUM 33 DEB",
        "meta_object_id": "1997-051HN",
        "meta_epoch": "2025-12-11T03:24:20.281824",
        "meta_mean_motion": 14.63343706,
        "meta_eccentricity": 0.0001378,
        "meta_inclination": 86.38,
        "meta_ra_of_asc_node": 31.2512,
        "meta_arg_of_pericenter": 224.2146,
        "meta_mean_anomaly": 135.8956,
        "meta_ephemeris_type": 0,
        "meta_classification_type": "U",
        "meta_norad_cat_id": 34521,
        "meta_element_set_no": 999,
        "meta_rev_at_epoch": 88449,
        "meta_bstar": 0.0013462,
        "meta_mean_motion_dot": 6.973e-05,
        "meta_mean_motion_ddot": 0,
        "tle_line1": "1 34521U 97051HN  25345.14190141  .00006973  00000+0  13462-2 0  9999",
        "tle_line2": "2 34521  86.3800  31.2512 0001378 224.2146 135.8956 14.63343706884493"
      },
      "geometry": {
        "type": "Point",
        "coordinates": [
          -151.70494375009042,
          38.185491917402686
        ]
      }
    },
    {
      "type": "Feature",
      "properties": {
        "norad_id": 34525,
        "name": "IRIDIUM 33 DEB",
        "group": "iridium-33-debris",
        "lat": 60.806218442719626,
        "lon": 53.94533274829729,
        "alt_km": 739.3162912590187,
        "timestamp": "2025-12-11T08:58:27.510301+00:00",
        "meta_object_name": "IRIDIUM 33 DEB",
        "meta_object_id": "1997-051HS",
        "meta_epoch": "2025-12-11T05:41:41.994240",
        "meta_mean_motion": 14.42899874,
        "meta_eccentricity": 0.0006687,
        "meta_inclination": 86.3728,
        "meta_ra_of_asc_node": 47.4849,
        "meta_arg_of_pericenter": 98.7535,
        "meta_mean_anomaly": 333.0533,
        "meta_ephemeris_type": 0,
        "meta_classification_type": "U",
        "meta_norad_cat_id": 34525,
        "meta_element_set_no": 999,
        "meta_rev_at_epoch": 88066,
        "meta_bstar": 0.00054842,
        "meta_mean_motion_dot": 1.851e-05,
        "meta_mean_motion_ddot": 0,
        "tle_line1": "1 34525U 97051HS  25345.23729160  .00001851  00000+0  54842-3 0  9990",
        "tle_line2": "2 34525  86.3728  47.4849 0006687  98.7535 333.0533 14.42899874880669"
      },
      "geometry": {
        "type": "Point",
        "coordinates": [
          53.94533274829729,
          60.806218442719626
        ]
      }
    },
    {
      "type": "Feature",
      "properties": {
        "norad_id": 34529,
        "name": "IRIDIUM 33 DEB",
        "group": "iridium-33-debris",
        "lat": -32.85269084547733,
        "lon": 33.64092259839501,
        "alt_km": 765.4118060501924,
        "timestamp": "2025-12-11T08:58:27.510311+00:00",
        "meta_object_name": "IRIDIUM 33 DEB",
        "meta_object_id": "1997-051HW",
        "meta_epoch": "2025-12-11T04:07:33.337632",
        "meta_mean_motion": 14.40613819,
        "meta_eccentricity": 0.000461,
        "meta_inclination": 86.3642,
        "meta_ra_of_asc_node": 36.0802,
        "meta_arg_of_pericenter": 181.7782,
        "meta_mean_anomaly": 178.3402,
        "meta_ephemeris_type": 0,
        "meta_classification_type": "U",
        "meta_norad_cat_id": 34529,
        "meta_element_set_no": 999,
        "meta_rev_at_epoch": 88119,
        "meta_bstar": 0.00016815,
        "meta_mean_motion_dot": 5.56e-06,
        "meta_mean_motion_ddot": 0,
        "tle_line1": "1 34529U 97051HW  25345.17191363  .00000556  00000+0  16815-3 0  9994",
        "tle_line2": "2 34529  86.3642  36.0802 0004610 181.7782 178.3402 14.40613819881197"
      },
      "geometry": {
        "type": "Point",
        "coordinates": [
          33.64092259839501,
          -32.85269084547733
        ]
      }
    },
    {
      "type": "Feature",
      "properties": {
        "norad_id": 34538,
        "name": "IRIDIUM 33 DEB",
        "group": "iridium-33-debris",
        "lat": 25.575071305929733,
        "lon": -175.63153582456633,
        "alt_km": 772.6205152650045,
        "timestamp": "2025-12-11T08:58:27.510322+00:00",
        "meta_object_name": "IRIDIUM 33 DEB",
        "meta_object_id": "1997-051JF",
        "meta_epoch": "2025-12-10T12:59:24.609120",
        "meta_mean_motion": 14.42626981,
        "meta_eccentricity": 0.0033054,
        "meta_inclination": 86.2772,
        "meta_ra_of_asc_node": 6.5186,
        "meta_arg_of_pericenter": 335.5091,
        "meta_mean_anomaly": 177.0552,
        "meta_ephemeris_type": 0,
        "meta_classification_type": "U",
        "meta_norad_cat_id": 34538,
        "meta_element_set_no": 999,
        "meta_rev_at_epoch": 87724,
        "meta_bstar": 0.0013644,
        "meta_mean_motion_dot": 4.581e-05,
        "meta_mean_motion_ddot": 0,
        "tle_line1": "1 34538U 97051JF  25344.54125705  .00004581  00000+0  13644-2 0  9999",
        "tle_line2": "2 34538  86.2772   6.5186 0033054 335.5091 177.0552 14.42626981877242"
      },
      "geometry": {
        "type": "Point",
        "coordinates": [
          -175.63153582456633,
          25.575071305929733
        ]
      }
    }
  ]
}